0 COSMOS 2251 DEB
1 35958U 93036AUY 13281.56492334  .00009118  00000-0  15675-2 0  3058
2 35958 073.8278 349.4176 0074719 242.5201 116.8364 14.66911957218329
0 COSMOS 2251 DEB
1 35958U 93036AUY 13283.47445548  .00009222  00000-0  15851-2 0  3068
2 35958 073.8281 345.6896 0073980 237.6303 121.7864 14.66948833218601
0 COSMOS 2251 DEB
1 35958U 93036AUY 13285.52032745  .00009265  00000-0  15922-2 0  3074
2 35958 073.8265 341.6937 0073362 233.8374 125.5972 14.66987359218906
0 COSMOS 2251 DEB
1 35958U 93036AUY 13287.49795653  .00009732  00000-0  16671-2 0  3088
2 35958 073.8217 337.8139 0075061 234.7615 124.8688 14.67035464219190
0 COSMOS 2251 DEB
1 35958U 93036AUY 13288.45260701  .00010268  00000-0  17524-2 0  3091
2 35958 073.8263 335.9275 0077472 227.9757 131.7650 14.67066612219331
0 COSMOS 2251 DEB
1 35958U 93036AUY 13289.81636616  .00010517  00000-0  17918-2 0  3100
2 35958 073.8507 333.3280 0078127 211.8516 147.8614 14.67099707219534
0 COSMOS 2251 DEB
1 35958U 93036AUY 13290.43005935  .00010831  00000-0  18398-2 0  3117
2 35958 073.8387 332.0764 0080118 219.3548 140.3391 14.67119979219628
0 COSMOS 2251 DEB
1 35958U 93036AUY 13292.47566543  .00011237  00000-0  18968-2 0  3125
2 35958 073.8495 328.0890 0084080 215.8161 143.9072 14.67173698219923
0 COSMOS 2251 DEB
1 35958U 93036AUY 13294.45301074  .00011723  00000-0  19742-2 0  3133
2 35958 073.8478 324.2163 0084747 213.2720 146.4923 14.67228952220219
0 COSMOS 2251 DEB
1 35958U 93036AUY 13295.40754388  .00012686  00000-0  21620-2 0  3147
2 35958 073.8230 322.3489 0073730 214.5540 145.0937 14.67265153220358
